ONEWEB-0428             
1 51629U 22012H   26017.58707792  .00000438  00000+0  12179-2 0  9997
2 51629  87.8768  66.2976 0001755  97.9761 262.1566 13.10370892189563
ONEWEB-0431             
1 51630U 22012J   26017.63339992 -.00000172  00000+0 -52897-3 0  9997
2 51630  87.8784  66.2704 0001281 114.7779 245.3482 13.10375966189627
ONEWEB-0434             
1 51631U 22012K   26017.61043981 -.00000517  00000+0 -15180-2 0  9992
2 51631  87.8766  66.3081 0002461  94.6506 265.4903 13.10371063189605
ONEWEB-0435             
1 51632U 22012L   26017.54223852 -.00000600  00000+0 -17559-2 0  9997
2 51632  87.8768  66.3115 0001503  88.4660 271.6639 13.10373166189582
ONEWEB-0436             
1 51633U 22012M   26017.47891988  .00000043  00000+0  78243-4 0  9999
2 51633  87.9089  35.7889 0001555  88.8677 271.2633 13.17650224193830
ONEWEB-0438             
1 51634U 22012N   26017.60200715 -.00000087  00000+0 -28479-3 0  9992
2 51634  87.8763  66.3009 0001987  99.3775 260.7577 13.10370182189625
ONEWEB-0439             
1 51635U 22012P   26017.60532320 -.00000278  00000+0 -83390-3 0  9998
2 51635  87.8765  66.2890 0001803  96.8588 263.2745 13.10370348189603
ONEWEB-0442             
1 51636U 22012Q   26017.54725082 -.00000290  00000+0 -77917-3 0  9993
2 51636  87.9078  35.8196 0002376  98.9908 261.1492 13.17654748193830
ONEWEB-0443             
1 51637U 22012R   26017.33886597  .00000057  00000+0  11241-3 0  9997
2 51637  87.9079  35.8650 0002033  85.9127 274.2237 13.17649833193859
ONEWEB-0444             
1 51638U 22012S   26017.59537195  .00000197  00000+0  52853-3 0  9992
2 51638  87.8766  66.2895 0001786  97.6067 262.5263 13.10370284189610
ONEWEB-0445             
1 51639U 22012T   26017.54059673 -.00001387  00000+0 -40112-2 0  9996
2 51639  87.8784  66.2736 0001886 105.9127 254.2209 13.10361306189619
ONEWEB-0446             
1 51640U 22012U   26017.59371108  .00000283  00000+0  77573-3 0  9997
2 51640  87.8765  66.3064 0001811 104.2062 255.9267 13.10370349189601
ONEWEB-0448             
1 51641U 22012V   26017.59868635  .00000083  00000+0  20025-3 0  9992
2 51641  87.8762  66.3043 0001771  98.3201 261.8127 13.10369542189579
ONEWEB-0449             
1 51642U 22012W   26017.60366601 -.00000219  00000+0 -66369-3 0  9995
2 51642  87.8770  66.2776 0002255  95.7581 264.3803 13.10369658189589
ONEWEB-0451             
1 51643U 22012X   26017.55148879  .00000034  00000+0  53118-4 0  9997
2 51643  87.9092  35.7698 0001893  90.8776 269.2572 13.17650044193829
ONEWEB-0452             
1 51644U 22012Y   26017.54980572  .00000025  00000+0  29942-4 0  9999
2 51644  87.9083  35.8213 0002004  84.4321 275.7039 13.17648630193833
ONEWEB-0456             
1 51646U 22012AA  26017.61361406 -.00000579  00000+0 -16948-2 0  9994
2 51646  87.8784  66.2490 0001624  96.5655 263.5657 13.10372152189627
