[{"OBJECT_NAME":"ONEWEB-0428","OBJECT_ID":"2022-012H","EPOCH":"2026-01-17T14:05:23.532288","MEAN_MOTION":13.10370892,"ECCENTRICITY":0.00017551,"INCLINATION":87.8768,"RA_OF_ASC_NODE":66.2976,"ARG_OF_PERICENTER":97.9761,"MEAN_ANOMALY":262.1566,"EPHEMERIS_TYPE":0,"CLASSIFICATION_TYPE":"U","NORAD_CAT_ID":51629,"ELEMENT_SET_NO":999,"REV_AT_EPOCH":18956,"BSTAR":0.0012178582,"MEAN_MOTION_DOT":4.38e-6,"MEAN_MOTION_DDOT":0},{"OBJECT_NAME":"ONEWEB-0431","OBJECT_ID":"2022-012J","EPOCH":"2026-01-17T15:12:05.753088","MEAN_MOTION":13.10375966,"ECCENTRICITY":0.00012817,"INCLINATION":87.8784,"RA_OF_ASC_NODE":66.2704,"ARG_OF_PERICENTER":114.7779,"MEAN_ANOMALY":245.3482,"EPHEMERIS_TYPE":0,"CLASSIFICATION_TYPE":"U","NORAD_CAT_ID":51630,"ELEMENT_SET_NO":999,"REV_AT_EPOCH":18962,"BSTAR":-0.00052897397,"MEAN_MOTION_DOT":-1.72e-6,"MEAN_MOTION_DDOT":0},{"OBJECT_NAME":"ONEWEB-0434","OBJECT_ID":"2022-012K","EPOCH":"2026-01-17T14:39:01.999584","MEAN_MOTION":13.10371063,"ECCENTRICITY":0.00024611,"INCLINATION":87.8766,"RA_OF_ASC_NODE":66.3081,"ARG_OF_PERICENTER":94.6506,"MEAN_ANOMALY":265.4903,"EPHEMERIS_TYPE":0,"CLASSIFICATION_TYPE":"U","NORAD_CAT_ID":51631,"ELEMENT_SET_NO":999,"REV_AT_EPOCH":18960,"BSTAR":-0.0015179821,"MEAN_MOTION_DOT":-5.17e-6,"MEAN_MOTION_DDOT":0},{"OBJECT_NAME":"ONEWEB-0435","OBJECT_ID":"2022-012L","EPOCH":"2026-01-17T13:00:49.408128","MEAN_MOTION":13.10373166,"ECCENTRICITY":0.00015031,"INCLINATION":87.8768,"RA_OF_ASC_NODE":66.3115,"ARG_OF_PERICENTER":88.466,"MEAN_ANOMALY":271.6639,"EPHEMERIS_TYPE":0,"CLASSIFICATION_TYPE":"U","NORAD_CAT_ID":51632,"ELEMENT_SET_NO":999,"REV_AT_EPOCH":18958,"BSTAR":-0.0017559209,"MEAN_MOTION_DOT":-6.0e-6,"MEAN_MOTION_DDOT":0},{"OBJECT_NAME":"ONEWEB-0436","OBJECT_ID":"2022-012M","EPOCH":"2026-01-17T11:29:38.677632","MEAN_MOTION":13.17650224,"ECCENTRICITY":0.00015557,"INCLINATION":87.9089,"RA_OF_ASC_NODE":35.7889,"ARG_OF_PERICENTER":88.8677,"MEAN_ANOMALY":271.2633,"EPHEMERIS_TYPE":0,"CLASSIFICATION_TYPE":"U","NORAD_CAT_ID":51633,"ELEMENT_SET_NO":999,"REV_AT_EPOCH":19383,"BSTAR":7.8242912e-5,"MEAN_MOTION_DOT":4.3e-7,"MEAN_MOTION_DDOT":0},{"OBJECT_NAME":"ONEWEB-0438","OBJECT_ID":"2022-012N","EPOCH":"2026-01-17T14:26:53.417760","MEAN_MOTION":13.10370182,"ECCENTRICITY":0.00019878,"INCLINATION":87.8763,"RA_OF_ASC_NODE":66.3009,"ARG_OF_PERICENTER":99.3775,"MEAN_ANOMALY":260.7577,"EPHEMERIS_TYPE":0,"CLASSIFICATION_TYPE":"U","NORAD_CAT_ID":51634,"ELEMENT_SET_NO":999,"REV_AT_EPOCH":18962,"BSTAR":-0.00028478708,"MEAN_MOTION_DOT":-8.7e-7,"MEAN_MOTION_DDOT":0},{"OBJECT_NAME":"ONEWEB-0439","OBJECT_ID":"2022-012P","EPOCH":"2026-01-17T14:31:39.924480","MEAN_MOTION":13.10370348,"ECCENTRICITY":0.00018039,"INCLINATION":87.8765,"RA_OF_ASC_NODE":66.289,"ARG_OF_PERICENTER":96.8588,"MEAN_ANOMALY":263.2745,"EPHEMERIS_TYPE":0,"CLASSIFICATION_TYPE":"U","NORAD_CAT_ID":51635,"ELEMENT_SET_NO":999,"REV_AT_EPOCH":18960,"BSTAR":-0.00083389955,"MEAN_MOTION_DOT":-2.78e-6,"MEAN_MOTION_DDOT":0},{"OBJECT_NAME":"ONEWEB-0442","OBJECT_ID":"2022-012Q","EPOCH":"2026-01-17T13:08:02.470848","MEAN_MOTION":13.17654748,"ECCENTRICITY":0.00023763,"INCLINATION":87.9078,"RA_OF_ASC_NODE":35.8196,"ARG_OF_PERICENTER":98.9908,"MEAN_ANOMALY":261.1492,"EPHEMERIS_TYPE":0,"CLASSIFICATION_TYPE":"U","NORAD_CAT_ID":51636,"ELEMENT_SET_NO":999,"REV_AT_EPOCH":19383,"BSTAR":-0.00077916907,"MEAN_MOTION_DOT":-2.9e-6,"MEAN_MOTION_DDOT":0},{"OBJECT_NAME":"ONEWEB-0443","OBJECT_ID":"2022-012R","EPOCH":"2026-01-17T08:07:58.019808","MEAN_MOTION":13.17649833,"ECCENTRICITY":0.00020338,"INCLINATION":87.9079,"RA_OF_ASC_NODE":35.865,"ARG_OF_PERICENTER":85.9127,"MEAN_ANOMALY":274.2237,"EPHEMERIS_TYPE":0,"CLASSIFICATION_TYPE":"U","NORAD_CAT_ID":51637,"ELEMENT_SET_NO":999,"REV_AT_EPOCH":19385,"BSTAR":0.00011240782,"MEAN_MOTION_DOT":5.7e-7,"MEAN_MOTION_DDOT":0},{"OBJECT_NAME":"ONEWEB-0444","OBJECT_ID":"2022-012S","EPOCH":"2026-01-17T14:17:20.136480","MEAN_MOTION":13.10370284,"ECCENTRICITY":0.00017869,"INCLINATION":87.8766,"RA_OF_ASC_NODE":66.2895,"ARG_OF_PERICENTER":97.6067,"MEAN_ANOMALY":262.5263,"EPHEMERIS_TYPE":0,"CLASSIFICATION_TYPE":"U","NORAD_CAT_ID":51638,"ELEMENT_SET_NO":999,"REV_AT_EPOCH":18961,"BSTAR":0.00052853428,"MEAN_MOTION_DOT":1.97e-6,"MEAN_MOTION_DDOT":0},{"OBJECT_NAME":"ONEWEB-0445","OBJECT_ID":"2022-012T","EPOCH":"2026-01-17T12:58:27.557472","MEAN_MOTION":13.10361306,"ECCENTRICITY":0.00018866,"INCLINATION":87.8784,"RA_OF_ASC_NODE":66.2736,"ARG_OF_PERICENTER":105.9127,"MEAN_ANOMALY":254.2209,"EPHEMERIS_TYPE":0,"CLASSIFICATION_TYPE":"U","NORAD_CAT_ID":51639,"ELEMENT_SET_NO":999,"REV_AT_EPOCH":18961,"BSTAR":-0.0040111792,"MEAN_MOTION_DOT":-1.387e-5,"MEAN_MOTION_DDOT":0},{"OBJECT_NAME":"ONEWEB-0446","OBJECT_ID":"2022-012U","EPOCH":"2026-01-17T14:14:56.637312","MEAN_MOTION":13.10370349,"ECCENTRICITY":0.00018114,"INCLINATION":87.8765,"RA_OF_ASC_NODE":66.3064,"ARG_OF_PERICENTER":104.2062,"MEAN_ANOMALY":255.9267,"EPHEMERIS_TYPE":0,"CLASSIFICATION_TYPE":"U","NORAD_CAT_ID":51640,"ELEMENT_SET_NO":999,"REV_AT_EPOCH":18960,"BSTAR":0.00077572907,"MEAN_MOTION_DOT":2.83e-6,"MEAN_MOTION_DDOT":0},{"OBJECT_NAME":"ONEWEB-0448","OBJECT_ID":"2022-012V","EPOCH":"2026-01-17T14:22:06.500640","MEAN_MOTION":13.10369542,"ECCENTRICITY":0.00017717,"INCLINATION":87.8762,"RA_OF_ASC_NODE":66.3043,"ARG_OF_PERICENTER":98.3201,"MEAN_ANOMALY":261.8127,"EPHEMERIS_TYPE":0,"CLASSIFICATION_TYPE":"U","NORAD_CAT_ID":51641,"ELEMENT_SET_NO":999,"REV_AT_EPOCH":18957,"BSTAR":0.00020025311,"MEAN_MOTION_DOT":8.3e-7,"MEAN_MOTION_DDOT":0},{"OBJECT_NAME":"ONEWEB-0449","OBJECT_ID":"2022-012W","EPOCH":"2026-01-17T14:29:16.743264","MEAN_MOTION":13.10369658,"ECCENTRICITY":0.0002255,"INCLINATION":87.877,"RA_OF_ASC_NODE":66.2776,"ARG_OF_PERICENTER":95.7581,"MEAN_ANOMALY":264.3803,"EPHEMERIS_TYPE":0,"CLASSIFICATION_TYPE":"U","NORAD_CAT_ID":51642,"ELEMENT_SET_NO":999,"REV_AT_EPOCH":18958,"BSTAR":-0.00066368824,"MEAN_MOTION_DOT":-2.19e-6,"MEAN_MOTION_DDOT":0},{"OBJECT_NAME":"ONEWEB-0451","OBJECT_ID":"2022-012X","EPOCH":"2026-01-17T13:14:08.631456","MEAN_MOTION":13.17650044,"ECCENTRICITY":0.00018932,"INCLINATION":87.9092,"RA_OF_ASC_NODE":35.7698,"ARG_OF_PERICENTER":90.8776,"MEAN_ANOMALY":269.2572,"EPHEMERIS_TYPE":0,"CLASSIFICATION_TYPE":"U","NORAD_CAT_ID":51643,"ELEMENT_SET_NO":999,"REV_AT_EPOCH":19382,"BSTAR":5.3117982e-5,"MEAN_MOTION_DOT":3.4e-7,"MEAN_MOTION_DDOT":0},{"OBJECT_NAME":"ONEWEB-0452","OBJECT_ID":"2022-012Y","EPOCH":"2026-01-17T13:11:43.214208","MEAN_MOTION":13.1764863,"ECCENTRICITY":0.00020049,"INCLINATION":87.9083,"RA_OF_ASC_NODE":35.8213,"ARG_OF_PERICENTER":84.4321,"MEAN_ANOMALY":275.7039,"EPHEMERIS_TYPE":0,"CLASSIFICATION_TYPE":"U","NORAD_CAT_ID":51644,"ELEMENT_SET_NO":999,"REV_AT_EPOCH":19383,"BSTAR":2.9942314e-5,"MEAN_MOTION_DOT":2.5e-7,"MEAN_MOTION_DDOT":0},{"OBJECT_NAME":"ONEWEB-0456","OBJECT_ID":"2022-012AA","EPOCH":"2026-01-17T14:43:36.254784","MEAN_MOTION":13.10372152,"ECCENTRICITY":0.00016242,"INCLINATION":87.8784,"RA_OF_ASC_NODE":66.249,"ARG_OF_PERICENTER":96.5655,"MEAN_ANOMALY":263.5657,"EPHEMERIS_TYPE":0,"CLASSIFICATION_TYPE":"U","NORAD_CAT_ID":51646,"ELEMENT_SET_NO":999,"REV_AT_EPOCH":18962,"BSTAR":-0.0016948025,"MEAN_MOTION_DOT":-5.79e-6,"MEAN_MOTION_DDOT":0}]
